     3.02           N: GNSS NAV DATA    R: GLONASS          RINEX VERSION / TYPE
CHC                 CHC                 20250609 012159 UTC PGM / RUN BY / DATE 
    18                                                      LEAP SECONDS        
                                                            END OF HEADER       
R05 2025  6  9  1 15  0  1.51102431118D-04  9.09494701773D-13  4.98000000000D+03
     -2.38623706055D+04  1.25377082825D+00 -1.86264514923D-09  0.00000000000D+00
      1.71108398438D+01 -2.03657150269D-02  2.79396772385D-09  1.00000000000D+00
      9.05066699219D+03  3.30805397034D+00  9.31322574615D-10  0.00000000000D+00
R10 2025  6  9  1 15  0 -3.36471945047D-04 -4.54747350886D-12  4.98000000000D+03
     -7.23029785156D+03  7.83061981201D-02 -2.79396772385D-09  0.00000000000D+00
      2.44563701172D+04  2.50566482544D-01  9.31322574615D-10 -7.00000000000D+00
      1.56132177734D+03 -3.54849529266D+00  1.86264514923D-09  0.00000000000D+00
R11 2025  6  9  1 15  0  1.70115381479D-05 -9.09494701773D-13  4.98000000000D+03
      2.32499902344D+03 -6.42301559448D-01 -2.79396772385D-09  0.00000000000D+00
      1.87316440430D+04  2.26058769226D+00  9.31322574615D-10  0.00000000000D+00
      1.71611235352D+04 -2.38424968719D+00  0.00000000000D+00  0.00000000000D+00
R20 2025  6  9  1 15  0 -1.31473876536D-04  0.00000000000D+00  4.98000000000D+03
     -9.87571777344D+03 -1.96643257141D+00 -2.79396772385D-09  0.00000000000D+00
      4.25271191406D+03 -2.48829174042D+00  2.79396772385D-09  2.00000000000D+00
      2.31351918945D+04 -3.78825187683D-01  0.00000000000D+00  0.00000000000D+00
R21 2025  6  9  1 15  0 -2.09070742130D-04 -3.63797880709D-12  4.98000000000D+03
      3.22185693359D+03 -1.54709434509D+00 -2.79396772385D-09  0.00000000000D+00
      1.70926264648D+04 -2.04189395905D+00  9.31322574615D-10  4.00000000000D+00
      1.86651284180D+04  2.13318157196D+00  0.00000000000D+00  0.00000000000D+00
R22 2025  6  9  1 15  0  6.90100714564D-05  1.81898940355D-12  4.98000000000D+03
      1.53349667969D+04 -1.73683166504D-02 -1.86264514923D-09  0.00000000000D+00
      2.03142612305D+04 -2.72333145142D-01 -9.31322574615D-10 -3.00000000000D+00
      1.65103662109D+03  3.55924224854D+00  0.00000000000D+00  0.00000000000D+00
R12 2025  6  9  1 15  0  5.52572309971D-05  9.09494701773D-13  5.34000000000D+03
      1.15022182617D+04 -1.02103614807D+00 -9.31322574615D-10  0.00000000000D+00
      1.60108398437D+02  2.94029235840D+00  0.00000000000D+00 -1.00000000000D+00
      2.27956118164D+04  4.95877265930D-01 -1.86264514923D-09  0.00000000000D+00
